SL-8 R/B                
1 19257U 88053B   26108.23307422  .00000105  00000+0  42464-4 0  9997
2 19257  74.0490  39.5721 0020895 212.8980 297.8522 14.38938873982289
COSMOS 1975             
1 19573U 88093A   26107.87740908  .00003765  00000+0  13401-3 0  9994
2 19573  82.5177  78.3200 0012610  41.1597 319.0591 15.28566986 25397
SL-14 R/B               
1 19574U 88093B   26108.21590412  .00000262  00000+0  27305-4 0  9995
2 19574  82.5341   4.9492 0019079 267.3595 253.5358 14.85698791  6883
SL-16 R/B               
1 19650U 88102B   26108.17783376 -.00000227  00000+0 -90595-4 0  9993
2 19650  70.9994  68.4059 0016146 305.1077  54.8532 14.16159363932486
INTERCOSMOS 24          
1 20261U 89080A   26107.88458382  .00000220  00000+0  60942-4 0  9996
2 20261  82.6029  78.8752 1187346 201.7891 152.8409 12.59597964671735
SL-14 R/B               
1 20262U 89080C   26108.16315679  .00000236  00000+0  61043-4 0  9990
2 20262  82.5922 147.8557 1230972  94.5712 279.6692 12.50525496665086
DELTA 1 R/B             
1 20323U 89089B   26108.14335138  .00000159  00000+0  48033-4 0  9995
2 20323  97.0672 309.2971 0069013 359.1748   0.9325 14.50693387901454
ARIANE 40 R/B           
1 20443U 90005H   26108.14512865  .00000142  00000+0  58479-4 0  9999
2 20443  98.3009 167.6152 0011388  87.6876 272.5617 14.39895453898483
DELTA 2 R/B(1)          
1 20453U 90008B   26108.15086119  .00044228  00000+0  43651-3 0  9990
2 20453  35.6031 274.8332 0076144 269.7260  89.4752 15.61116728932295
COSMOS 2058             
1 20465U 90010A   26108.17012118  .00001702  00000+0  98267-4 0  9990
2 20465  82.4715   8.5310 0009096 189.3563 170.7499 15.11664268948202
SL-14 R/B               
1 20466U 90010B   26108.27760525  .00000314  00000+0  35086-4 0  9992
2 20466  82.5030 230.1982 0020206 165.3341 194.8465 14.83606783934353
SL-14 R/B               
1 20511U 90018B   26108.19833489  .00000238  00000+0  26870-4 0  9998
2 20511  82.5240 186.1739 0015279 326.2774  33.7467 14.82180710928430
HST                     
1 20580U 90037B   26108.14981721  .00004314  00000+0  13641-3 0  9993
2 20580  28.4727 130.6858 0002037 191.3823 168.6727 15.30071172779363
SL-16 R/B               
1 20625U 90046B   26108.28453860 -.00000224  00000+0 -90781-4 0  9995
2 20625  70.9992 214.7533 0016377 247.7293 112.2093 14.15015754853991
COSMOS 2084             
1 20663U 90055A   26108.23549010  .00001353  00000+0  10651-3 0  9994
2 20663  62.7892 200.6740 0010834 205.5458 154.5108 15.05875621942275
SL-6 R/B(2)             
1 20666U 90055D   26108.13978663  .00001100  00000+0  93639-4 0  9994
2 20666  62.7805 119.6742 0031214 355.4431   4.6380 15.03767221944121
SL-8 R/B                
1 20775U 90078B   26108.27366978  .00011679  00000+0  34403-3 0  9990
2 20775  82.9060 215.6791 0356596 240.2688 116.2613 14.90124568815197
