[{"OBJECT_NAME":"SL-8 R/B","OBJECT_ID":"1988-053B","EPOCH":"2026-04-18T05:35:37.612608","MEAN_MOTION":14.38938873,"ECCENTRICITY":0.00208953,"INCLINATION":74.049,"RA_OF_ASC_NODE":39.5721,"ARG_OF_PERICENTER":212.898,"MEAN_ANOMALY":297.8522,"EPHEMERIS_TYPE":0,"CLASSIFICATION_TYPE":"U","NORAD_CAT_ID":19257,"ELEMENT_SET_NO":999,"REV_AT_EPOCH":98228,"BSTAR":4.2463991e-5,"MEAN_MOTION_DOT":1.05e-6,"MEAN_MOTION_DDOT":0},{"OBJECT_NAME":"COSMOS 1975","OBJECT_ID":"1988-093A","EPOCH":"2026-04-17T21:03:28.144512","MEAN_MOTION":15.28566986,"ECCENTRICITY":0.00126109,"INCLINATION":82.5177,"RA_OF_ASC_NODE":78.32,"ARG_OF_PERICENTER":41.1597,"MEAN_ANOMALY":319.0591,"EPHEMERIS_TYPE":0,"CLASSIFICATION_TYPE":"U","NORAD_CAT_ID":19573,"ELEMENT_SET_NO":999,"REV_AT_EPOCH":2539,"BSTAR":0.00013400745,"MEAN_MOTION_DOT":3.765e-5,"MEAN_MOTION_DDOT":0},{"OBJECT_NAME":"SL-14 R/B","OBJECT_ID":"1988-093B","EPOCH":"2026-04-18T05:10:54.115968","MEAN_MOTION":14.85698791,"ECCENTRICITY":0.00190796,"INCLINATION":82.5341,"RA_OF_ASC_NODE":4.9492,"ARG_OF_PERICENTER":267.3595,"MEAN_ANOMALY":253.5358,"EPHEMERIS_TYPE":0,"CLASSIFICATION_TYPE":"U","NORAD_CAT_ID":19574,"ELEMENT_SET_NO":999,"REV_AT_EPOCH":688,"BSTAR":2.7305431e-5,"MEAN_MOTION_DOT":2.62e-6,"MEAN_MOTION_DDOT":0},{"OBJECT_NAME":"SL-16 R/B","OBJECT_ID":"1988-102B","EPOCH":"2026-04-18T04:16:04.836864","MEAN_MOTION":14.16159363,"ECCENTRICITY":0.00161464,"INCLINATION":70.9994,"RA_OF_ASC_NODE":68.4059,"ARG_OF_PERICENTER":305.1077,"MEAN_ANOMALY":54.8532,"EPHEMERIS_TYPE":0,"CLASSIFICATION_TYPE":"U","NORAD_CAT_ID":19650,"ELEMENT_SET_NO":999,"REV_AT_EPOCH":93248,"BSTAR":-9.0594899e-5,"MEAN_MOTION_DOT":-2.27e-6,"MEAN_MOTION_DDOT":0},{"OBJECT_NAME":"INTERCOSMOS 24","OBJECT_ID":"1989-080A","EPOCH":"2026-04-17T21:13:48.042048","MEAN_MOTION":12.59597964,"ECCENTRICITY":0.1187346,"INCLINATION":82.6029,"RA_OF_ASC_NODE":78.8752,"ARG_OF_PERICENTER":201.7891,"MEAN_ANOMALY":152.8409,"EPHEMERIS_TYPE":0,"CLASSIFICATION_TYPE":"U","NORAD_CAT_ID":20261,"ELEMENT_SET_NO":999,"REV_AT_EPOCH":67173,"BSTAR":6.0942013e-5,"MEAN_MOTION_DOT":2.2e-6,"MEAN_MOTION_DDOT":0},{"OBJECT_NAME":"SL-14 R/B","OBJECT_ID":"1989-080C","EPOCH":"2026-04-18T03:54:56.746656","MEAN_MOTION":12.50525496,"ECCENTRICITY":0.1230972,"INCLINATION":82.5922,"RA_OF_ASC_NODE":147.8557,"ARG_OF_PERICENTER":94.5712,"MEAN_ANOMALY":279.6692,"EPHEMERIS_TYPE":0,"CLASSIFICATION_TYPE":"U","NORAD_CAT_ID":20262,"ELEMENT_SET_NO":999,"REV_AT_EPOCH":66508,"BSTAR":6.1042882e-5,"MEAN_MOTION_DOT":2.36e-6,"MEAN_MOTION_DDOT":0},{"OBJECT_NAME":"DELTA 1 R/B","OBJECT_ID":"1989-089B","EPOCH":"2026-04-18T03:26:25.559232","MEAN_MOTION":14.50693387,"ECCENTRICITY":0.00690133,"INCLINATION":97.0672,"RA_OF_ASC_NODE":309.2971,"ARG_OF_PERICENTER":359.1748,"MEAN_ANOMALY":0.9325,"EPHEMERIS_TYPE":0,"CLASSIFICATION_TYPE":"U","NORAD_CAT_ID":20323,"ELEMENT_SET_NO":999,"REV_AT_EPOCH":90145,"BSTAR":4.8033279e-5,"MEAN_MOTION_DOT":1.59e-6,"MEAN_MOTION_DDOT":0},{"OBJECT_NAME":"ARIANE 40 R/B","OBJECT_ID":"1990-005H","EPOCH":"2026-04-18T03:28:59.115360","MEAN_MOTION":14.39895453,"ECCENTRICITY":0.00113885,"INCLINATION":98.3009,"RA_OF_ASC_NODE":167.6152,"ARG_OF_PERICENTER":87.6876,"MEAN_ANOMALY":272.5617,"EPHEMERIS_TYPE":0,"CLASSIFICATION_TYPE":"U","NORAD_CAT_ID":20443,"ELEMENT_SET_NO":999,"REV_AT_EPOCH":89848,"BSTAR":5.8478599e-5,"MEAN_MOTION_DOT":1.42e-6,"MEAN_MOTION_DDOT":0},{"OBJECT_NAME":"DELTA 2 R/B(1)","OBJECT_ID":"1990-008B","EPOCH":"2026-04-18T03:37:14.406816","MEAN_MOTION":15.61116728,"ECCENTRICITY":0.00761445,"INCLINATION":35.6031,"RA_OF_ASC_NODE":274.8332,"ARG_OF_PERICENTER":269.726,"MEAN_ANOMALY":89.4752,"EPHEMERIS_TYPE":0,"CLASSIFICATION_TYPE":"U","NORAD_CAT_ID":20453,"ELEMENT_SET_NO":999,"REV_AT_EPOCH":93229,"BSTAR":0.00043651467,"MEAN_MOTION_DOT":0.00044228,"MEAN_MOTION_DDOT":0},{"OBJECT_NAME":"COSMOS 2058","OBJECT_ID":"1990-010A","EPOCH":"2026-04-18T04:04:58.469952","MEAN_MOTION":15.11664268,"ECCENTRICITY":0.00090965,"INCLINATION":82.4715,"RA_OF_ASC_NODE":8.531,"ARG_OF_PERICENTER":189.3563,"MEAN_ANOMALY":170.7499,"EPHEMERIS_TYPE":0,"CLASSIFICATION_TYPE":"U","NORAD_CAT_ID":20465,"ELEMENT_SET_NO":999,"REV_AT_EPOCH":94820,"BSTAR":9.8266655e-5,"MEAN_MOTION_DOT":1.702e-5,"MEAN_MOTION_DDOT":0},{"OBJECT_NAME":"SL-14 R/B","OBJECT_ID":"1990-010B","EPOCH":"2026-04-18T06:39:45.093600","MEAN_MOTION":14.83606783,"ECCENTRICITY":0.00202066,"INCLINATION":82.503,"RA_OF_ASC_NODE":230.1982,"ARG_OF_PERICENTER":165.3341,"MEAN_ANOMALY":194.8465,"EPHEMERIS_TYPE":0,"CLASSIFICATION_TYPE":"U","NORAD_CAT_ID":20466,"ELEMENT_SET_NO":999,"REV_AT_EPOCH":93435,"BSTAR":3.5086192e-5,"MEAN_MOTION_DOT":3.14e-6,"MEAN_MOTION_DDOT":0},{"OBJECT_NAME":"SL-14 R/B","OBJECT_ID":"1990-018B","EPOCH":"2026-04-18T04:45:36.134496","MEAN_MOTION":14.8218071,"ECCENTRICITY":0.00152793,"INCLINATION":82.524,"RA_OF_ASC_NODE":186.1739,"ARG_OF_PERICENTER":326.2774,"MEAN_ANOMALY":33.7467,"EPHEMERIS_TYPE":0,"CLASSIFICATION_TYPE":"U","NORAD_CAT_ID":20511,"ELEMENT_SET_NO":999,"REV_AT_EPOCH":92843,"BSTAR":2.6870276e-5,"MEAN_MOTION_DOT":2.38e-6,"MEAN_MOTION_DDOT":0},{"OBJECT_NAME":"HST","OBJECT_ID":"1990-037B","EPOCH":"2026-04-18T03:35:44.206944","MEAN_MOTION":15.30071172,"ECCENTRICITY":0.0002037,"INCLINATION":28.4727,"RA_OF_ASC_NODE":130.6858,"ARG_OF_PERICENTER":191.3823,"MEAN_ANOMALY":168.6727,"EPHEMERIS_TYPE":0,"CLASSIFICATION_TYPE":"U","NORAD_CAT_ID":20580,"ELEMENT_SET_NO":999,"REV_AT_EPOCH":77936,"BSTAR":0.00013641258,"MEAN_MOTION_DOT":4.314e-5,"MEAN_MOTION_DDOT":0},{"OBJECT_NAME":"SL-16 R/B","OBJECT_ID":"1990-046B","EPOCH":"2026-04-18T06:49:44.135040","MEAN_MOTION":14.15015754,"ECCENTRICITY":0.00163776,"INCLINATION":70.9992,"RA_OF_ASC_NODE":214.7533,"ARG_OF_PERICENTER":247.7293,"MEAN_ANOMALY":112.2093,"EPHEMERIS_TYPE":0,"CLASSIFICATION_TYPE":"U","NORAD_CAT_ID":20625,"ELEMENT_SET_NO":999,"REV_AT_EPOCH":85399,"BSTAR":-9.078118e-5,"MEAN_MOTION_DOT":-2.24e-6,"MEAN_MOTION_DDOT":0},{"OBJECT_NAME":"COSMOS 2084","OBJECT_ID":"1990-055A","EPOCH":"2026-04-18T05:39:06.344640","MEAN_MOTION":15.05875621,"ECCENTRICITY":0.00108346,"INCLINATION":62.7892,"RA_OF_ASC_NODE":200.674,"ARG_OF_PERICENTER":205.5458,"MEAN_ANOMALY":154.5108,"EPHEMERIS_TYPE":0,"CLASSIFICATION_TYPE":"U","NORAD_CAT_ID":20663,"ELEMENT_SET_NO":999,"REV_AT_EPOCH":94227,"BSTAR":0.00010650595,"MEAN_MOTION_DOT":1.353e-5,"MEAN_MOTION_DDOT":0},{"OBJECT_NAME":"SL-6 R/B(2)","OBJECT_ID":"1990-055D","EPOCH":"2026-04-18T03:21:17.564832","MEAN_MOTION":15.03767221,"ECCENTRICITY":0.00312149,"INCLINATION":62.7805,"RA_OF_ASC_NODE":119.6742,"ARG_OF_PERICENTER":355.4431,"MEAN_ANOMALY":4.638,"EPHEMERIS_TYPE":0,"CLASSIFICATION_TYPE":"U","NORAD_CAT_ID":20666,"ELEMENT_SET_NO":999,"REV_AT_EPOCH":94412,"BSTAR":9.363851e-5,"MEAN_MOTION_DOT":1.1e-5,"MEAN_MOTION_DDOT":0},{"OBJECT_NAME":"SL-8 R/B","OBJECT_ID":"1990-078B","EPOCH":"2026-04-18T06:34:05.068992","MEAN_MOTION":14.90124568,"ECCENTRICITY":0.03565962,"INCLINATION":82.906,"RA_OF_ASC_NODE":215.6791,"ARG_OF_PERICENTER":240.2688,"MEAN_ANOMALY":116.2613,"EPHEMERIS_TYPE":0,"CLASSIFICATION_TYPE":"U","NORAD_CAT_ID":20775,"ELEMENT_SET_NO":999,"REV_AT_EPOCH":81519,"BSTAR":0.00034402505,"MEAN_MOTION_DOT":0.00011679,"MEAN_MOTION_DDOT":0}]
